[{"OBJECT_NAME":"SAUDISAT 1C (SO-50)","OBJECT_ID":"2002-058C","EPOCH":"2026-02-01T20:52:58.819008","MEAN_MOTION":14.82631536,"ECCENTRICITY":0.00741879,"INCLINATION":64.5522,"RA_OF_ASC_NODE":187.5376,"ARG_OF_PERICENTER":287.1758,"MEAN_ANOMALY":72.1235,"EPHEMERIS_TYPE":0,"CLASSIFICATION_TYPE":"U","NORAD_CAT_ID":27607,"ELEMENT_SET_NO":999,"REV_AT_EPOCH":24439,"BSTAR":0.00019930191,"MEAN_MOTION_DOT":1.532e-5,"MEAN_MOTION_DDOT":0},{"OBJECT_NAME":"SAUDISAT 2","OBJECT_ID":"2004-025F","EPOCH":"2026-02-01T23:33:27.514080","MEAN_MOTION":14.56580111,"ECCENTRICITY":0.00246539,"INCLINATION":98.5461,"RA_OF_ASC_NODE":29.5081,"ARG_OF_PERICENTER":354.9822,"MEAN_ANOMALY":5.1125,"EPHEMERIS_TYPE":0,"CLASSIFICATION_TYPE":"U","NORAD_CAT_ID":28371,"ELEMENT_SET_NO":999,"REV_AT_EPOCH":14606,"BSTAR":0.00010332016,"MEAN_MOTION_DOT":4.12e-6,"MEAN_MOTION_DDOT":0},{"OBJECT_NAME":"SAUDISAT 3","OBJECT_ID":"2007-012B","EPOCH":"2026-02-01T20:41:18.748320","MEAN_MOTION":14.71316241,"ECCENTRICITY":0.0013476,"INCLINATION":98.1297,"RA_OF_ASC_NODE":343.3139,"ARG_OF_PERICENTER":301.0156,"MEAN_ANOMALY":58.9726,"EPHEMERIS_TYPE":0,"CLASSIFICATION_TYPE":"U","NORAD_CAT_ID":31118,"ELEMENT_SET_NO":999,"REV_AT_EPOCH":784,"BSTAR":7.7798365e-5,"MEAN_MOTION_DOT":4.3e-6,"MEAN_MOTION_DDOT":0},{"OBJECT_NAME":"PISAT","OBJECT_ID":"2016-059B","EPOCH":"2026-02-01T22:07:41.784960","MEAN_MOTION":14.68671864,"ECCENTRICITY":0.00277076,"INCLINATION":97.8173,"RA_OF_ASC_NODE":39.2225,"ARG_OF_PERICENTER":278.2999,"MEAN_ANOMALY":81.5065,"EPHEMERIS_TYPE":0,"CLASSIFICATION_TYPE":"U","NORAD_CAT_ID":41784,"ELEMENT_SET_NO":999,"REV_AT_EPOCH":49988,"BSTAR":0.00023366945,"MEAN_MOTION_DOT":1.32e-5,"MEAN_MOTION_DDOT":0},{"OBJECT_NAME":"FLYING LAPTOP","OBJECT_ID":"2017-042G","EPOCH":"2026-02-01T23:09:15.155136","MEAN_MOTION":15.00261966,"ECCENTRICITY":0.00151757,"INCLINATION":97.4204,"RA_OF_ASC_NODE":194.2515,"ARG_OF_PERICENTER":220.0248,"MEAN_ANOMALY":139.9859,"EPHEMERIS_TYPE":0,"CLASSIFICATION_TYPE":"U","NORAD_CAT_ID":42831,"ELEMENT_SET_NO":999,"REV_AT_EPOCH":46617,"BSTAR":0.00031906437,"MEAN_MOTION_DOT":3.948e-5,"MEAN_MOTION_DDOT":0},{"OBJECT_NAME":"SALSAT","OBJECT_ID":"2020-068K","EPOCH":"2026-02-01T23:28:21.133632","MEAN_MOTION":15.27407493,"ECCENTRICITY":0.00120503,"INCLINATION":97.882,"RA_OF_ASC_NODE":28.0663,"ARG_OF_PERICENTER":61.9502,"MEAN_ANOMALY":298.2953,"EPHEMERIS_TYPE":0,"CLASSIFICATION_TYPE":"U","NORAD_CAT_ID":46495,"ELEMENT_SET_NO":999,"REV_AT_EPOCH":29470,"BSTAR":0.00032406807,"MEAN_MOTION_DOT":8.632e-5,"MEAN_MOTION_DDOT":0}]
