SAUDISAT 1C (SO-50)     
1 27607U 02058C   26032.87012522  .00001532  00000+0  19930-3 0  9992
2 27607  64.5522 187.5376 0074187 287.1758  72.1235 14.82631536244391
SAUDISAT 2              
1 28371U 04025F   26032.98156845  .00000412  00000+0  10332-3 0  9999
2 28371  98.5461  29.5081 0024653 354.9822   5.1125 14.56580111146067
SAUDISAT 3              
1 31118U 07012B   26032.86202255  .00000430  00000+0  77798-4 0  9995
2 31118  98.1297 343.3139 0013476 301.0156  58.9726 14.71316241  7841
PISAT                   
1 41784U 16059B   26032.92201140  .00001320  00000+0  23367-3 0  9996
2 41784  97.8173  39.2225 0027707 278.2999  81.5065 14.68671864499887
FLYING LAPTOP           
1 42831U 17042G   26032.96475874  .00003948  00000+0  31906-3 0  9990
2 42831  97.4204 194.2515 0015175 220.0248 139.9859 15.00261966466174
SALSAT                  
1 46495U 20068K   26032.97802238  .00008632  00000+0  32407-3 0  9993
2 46495  97.8820  28.0663 0012050  61.9502 298.2953 15.27407493294702
